name,contactPerson,address,telephone,mobile,email,city,infoSrc
上海旭章室内设计有限公司,N/A,上海 上海市杨浦区周家嘴路3255号9楼（集中登记地）,(021),未提供,NA,Shanghai,Shunqi
上海元造室内设计有限公司,N/A,上海 上海市杨浦区周家嘴路3255号9楼（集中登记地）,(021),未提供,NA,Shanghai,Shunqi
景若蕙芷景观设计咨询（上海）有限公司,N/A,上海 上海市杨浦区长阳路2588号2幢2楼（集中登记地）,(021),未提供,NA,Shanghai,Shunqi
上海鲁班建筑设计事务所,N/A,上海 上海市杨浦区国康路100号2层（集中登记地）,(021),未提供,NA,Shanghai,Shunqi
上海市杨浦区暇海图文制作经营部,N/A,上海 上海市杨浦区江浦路1116号1层-3,(021),未提供,NA,Shanghai,Shunqi
上海市杨浦区典济图文制作服务部,N/A,上海 上海市杨浦区江浦路1508号1015室,(021),未提供,NA,Shanghai,Shunqi
变上海同大建筑设计事务所,N/A,上海 同济新村四平路第二小学 - ,(021),未提供,NA,Shanghai,Shunqi
上海同大规划建筑设计有限公司,N/A,上海 上海市杨浦区四平路1188号1201室,021-65155325,未提供,NA,Shanghai,Shunqi
上海一荧建筑装饰设计工程有限公司,N/A,上海 上海市杨浦区平凉路1398号105-6室,未提供,13818660060,NA,Shanghai,Shunqi
上海市烨建装饰设计工程有限公司,N/A,上海 上海市杨浦区控江路1142号23幢6069室,未提供,18616336991,NA,Shanghai,Shunqi
上海琛丽建筑装饰设计有限公司,N/A,上海 上海市杨浦区平凉路2103号62幢107室,未提供,15821923385,NA,Shanghai,Shunqi
上海郑堂鑫装潢有限公司,N/A,上海 上海市杨浦区殷行路759号2124室,未提供,13122051657,NA,Shanghai,Shunqi
上海申远建筑设计有限公司,N/A,上海 上海市杨浦区控江路1142号23幢5071-7室,021-65794758,未提供,NA,Shanghai,Shunqi
上海瑞浩装饰设计有限公司,N/A,上海 上海市杨浦区平凉路2103号47幢215室,(021),未提供,NA,Shanghai,Shunqi
上海郭与王品牌设计有限公司,N/A,上海 上海市杨浦区殷行路833号3夹层（集中登记地）,(021),未提供,NA,Shanghai,Shunqi
上海雅洁建筑装潢工程合作公司,N/A,上海 杨浦区平凉路1782弄41号,(021),未提供,NA,Shanghai,Shunqi
上海市虹口区海辉图文设计部,N/A,上海 上海市虹口区四平路645号,(021),未提供,NA,Shanghai,Shunqi
深圳市极尚建筑装饰设计工程有限公司上海分公司,N/A,上海 上海市杨浦区四平路1398号1005室,021-51259596,未提供,NA,Shanghai,Shunqi
上海勇圣建筑装潢材料有限公司,N/A,上海 上海奉贤四团镇四平路322号,(021),未提供,NA,Shanghai,Shunqi
上海瑞溪建筑设计有限公司,N/A,上海 上海市杨浦区平凉路2103号56幢308室,未提供,15901800407,NA,Shanghai,Shunqi
上海十昼建筑设计咨询有限公司,N/A,上海 上海市杨浦区控江路1142号23幢3132-12室,未提供,18640100910,NA,Shanghai,Shunqi
上海迪一图文设计制作有限公司,N/A,上海 上海市奉贤区四团镇四平路92号,021-63165107,未提供,NA,Shanghai,Shunqi
上海汇程建筑装饰设计有限公司,N/A,上海 上海市杨浦区平凉路1499号三层5-331室,未提供,13761387856,NA,Shanghai,Shunqi
上海雅可箱包设计制作有限公司分公司,N/A,上海 上海市四平路773号501室,未提供,13601940881,NA,Shanghai,Shunqi
上海煤营装潢工程有限公司,N/A,上海 杨浦区控江路1189号101－103室,(021),未提供,NA,Shanghai,Shunqi
上海谦友建筑设计有限公司,N/A,上海 上海市杨浦区平凉路2103号56幢324室,未提供,13917311092,NA,Shanghai,Shunqi
上海誉亚景观设计事务所,N/A,上海 上海市杨浦区平凉路2103号56幢325室,未提供,13564326468,NA,Shanghai,Shunqi
上海宗眸建筑设计事务所,N/A,上海 上海市杨浦区控江路1142号23幢3131-3室,(021),未提供,NA,Shanghai,Shunqi
上海越唐装饰设计工程有限公司,N/A,上海 上海市奉贤区四团镇（邵厂）四平路43号－328,021-62941349,未提供,NA,Shanghai,Shunqi
上海市奉贤区四团镇新龙装潢材料商店,N/A,上海 奉贤区四团镇（平安社区）四平路1349－5,(021),未提供,NA,Shanghai,Shunqi
上海苍境建筑设计事务所,N/A,上海 上海市杨浦区殷行路833号3夹层（集中登记地）,021-62865977,未提供,NA,Shanghai,Shunqi
上海市杨浦区明灏图文制作经营部,N/A,上海 上海市杨浦区殷行路751号202室,(021),未提供,NA,Shanghai,Shunqi
上海橙象装饰设计有限公司,N/A,上海 上海市杨浦区殷行路833号3夹层（集中登记地）,(021),未提供,NA,Shanghai,Shunqi
上海贵艺建筑装潢有限公司分公司,N/A,上海 奉贤区四团镇四平路108号新颜商务楼15幢5号,(021),未提供,NA,Shanghai,Shunqi
上海卿新建筑装潢材料有限公司分公司,N/A,上海 上海杨浦区五角场淞沪路164号,(021),未提供,NA,Shanghai,Shunqi
上海延荣建筑装潢有限公司申荣家具分公司,N/A,上海 上海市虹口区四平路494弄12号,(021),未提供,NA,Shanghai,Shunqi
上海百姓装潢有限公司虹口分公司,N/A,上海 上海市四平路186号105室,021-54083417,未提供,NA,Shanghai,Shunqi
上海杨浦区大桥装潢服务部,N/A,上海 上海市杨浦区大桥街道双阳路123号,(021),未提供,NA,Shanghai,Shunqi
上海狮晨建筑装潢有限公司,N/A,上海 上海市杨浦区平凉路1398号19幢1196室,(021),未提供,NA,Shanghai,Shunqi
上海欣健室内装潢有限公司分公司,N/A,上海 杨浦区四平路2164号甲蓝天写字楼338室,(021),未提供,NA,Shanghai,Shunqi
上海同灵建筑装潢工程有限公司,N/A,上海 上海市奉贤区四团镇海港四平路43号－250,(021),未提供,NA,Shanghai,Shunqi
上海市杨浦区尔宝形象设计室,N/A,上海 上海市杨浦区四平路1920号,(021),未提供,NA,Shanghai,Shunqi
上海品哲装饰设计有限公司,N/A,上海 上海市杨浦区平凉路1055号2楼C12-21室,未提供,18717930027,NA,Shanghai,Shunqi
上海梵茂建筑设计工程有限公司,N/A,上海 上海市杨浦区控江路1142号23幢4楼（集中登记地）,(021),未提供,NA,Shanghai,Shunqi
上海同艺图文设计制作有限公司第一分公司,N/A,上海 上海市四平路1239号 - ,021-35377780,未提供,NA,Shanghai,Shunqi
上海恒麦建筑设计事务所,N/A,上海 上海市虹口区四平路421弄107号N358室,021-65151319,未提供,NA,Shanghai,Shunqi
上海印德建筑装饰设计有限公司,N/A,上海 上海市杨浦区控江路1142号23幢4134-7室,未提供,13816977230,NA,Shanghai,Shunqi
上海光典建筑设计咨询有限公司,N/A,上海 上海市杨浦区控江路1142号23幢4楼（集中登记地）,(021),未提供,NA,Shanghai,Shunqi
上海威凌装潢有限公司分公司,N/A,上海 上海市平凉路716号403室,(021),未提供,NA,Shanghai,Shunqi
上海冠达尔锦城建筑设计有限公司清源工艺品分公司,N/A,上海 上海市杨浦区江浦路973号,(021),未提供,NA,Shanghai,Shunqi
上海景桁建筑设计事务所,N/A,上海 上海市杨浦区控江路1142号23幢5054-25室,021-65988900,未提供,NA,Shanghai,Shunqi
上海双蝶发型形象设计中心欧洁蔓美容院,N/A,上海 上海市杨浦区四平路2549－1号,021-35306706,未提供,NA,Shanghai,Shunqi
上海同技联合建设发展有限公司家庭装潢分公司,N/A,上海 上海市杨浦区控江路1688号701室,021-65671203,未提供,NA,Shanghai,Shunqi
上海尚志室内装潢有限公司杨浦分公司,N/A,上海 上海市控江路651号 - ,(021),未提供,NA,Shanghai,Shunqi
上海钦幸室内装潢有限公司分公司,N/A,上海 奉贤区四团镇四平路108号新颜商务楼15幢4号,(021),未提供,NA,Shanghai,Shunqi
上海市杨浦区鸿明塑钢装潢加工店,N/A,上海 杨浦区平凉路2436号 - ,(021),未提供,NA,Shanghai,Shunqi
上海佳奕美个人形象设计有限公司一分公司,N/A,上海 上海市杨浦区控江路647号,(021),未提供,NA,Shanghai,Shunqi
上海悠阁空间设计有限公司,N/A,上海 上海市杨浦区平凉路2103号65幢624室,未提供,13817832095,NA,Shanghai,Shunqi
上海旸明装潢有限公司分公司,N/A,上海 上海市杨浦区平凉路1718号202室,未提供,13301851699,NA,Shanghai,Shunqi
上海欣蓝建筑设计有限公司分公司,N/A,上海 奉贤区四团镇四平路108号新颜商务楼12幢2号,(021),未提供,NA,Shanghai,Shunqi
上海煦明动画设计制作有限公司,N/A,上海 上海市定海路473弄5号,(021),未提供,NA,Shanghai,Shunqi
宁波中鼎建筑设计研究院上海分院,N/A,上海 上海市杨浦区控江路1142号23幢4054-49室,(021),未提供,NA,Shanghai,Shunqi
上海勤强室内装潢有限公司分公司,N/A,上海 上海市四平路2164号232室,(021),未提供,NA,Shanghai,Shunqi
上海海健室内装潢有限公司分公司,N/A,上海 杨浦区四平路2164号甲蓝天写字楼101室,(021),未提供,NA,Shanghai,Shunqi
上海乾平装潢工程有限公司,N/A,上海 上海市控江路1555号A座313室－13,021-65672317,未提供,NA,Shanghai,Shunqi
上海其逸图文设计制作有限公司,N/A,上海 上海市虹口区四平路753-1号底层,(021),未提供,NA,Shanghai,Shunqi
上海丽影图文设计制作有限公司第一分公司,N/A,上海 上海市杨浦区江浦路10号405室,(021),未提供,NA,Shanghai,Shunqi
上海聚民装饰设计有限公司杨浦分公司,N/A,上海 上海市平凉路1871号 - ,(021),未提供,NA,Shanghai,Shunqi
上海牛犊建筑装饰设计工作室,N/A,上海 上海市杨浦区平凉路1398号318室,(021),未提供,NA,Shanghai,Shunqi
上海成奇建筑装潢材料有限公司分公司,N/A,上海 上海杨浦区平凉路2229-2233号,(021),未提供,NA,Shanghai,Shunqi
上海柯伊建筑装潢设计有限公司,N/A,上海 上海市虹口区四平路421弄107号Q621室,021-50586778-857,未提供,NA,Shanghai,Shunqi
上海云涧拾方建筑设计有限公司,N/A,上海 上海市杨浦区平凉路2103号65幢620室,021-51078995,未提供,NA,Shanghai,Shunqi
上海晶铂创意设计中心,N/A,上海 上海市杨浦区控江路1142号23幢3061室,未提供,18818005052,NA,Shanghai,Shunqi
上海适居装潢工程有限公司,N/A,上海 上海市杨浦区平凉路1055号E7－19室,未提供,13003121757,NA,Shanghai,Shunqi
上海瑞昕建筑装潢有限公司,N/A,上海 上海市杨浦区平凉路2767号116B室,021-55804691,未提供,NA,Shanghai,Shunqi
上海新建设建筑设计有限公司五分公司,N/A,上海 上海市杨浦区四平路1147弄1-7号三层,021-65979792,未提供,NA,Shanghai,Shunqi
上海殿宇装饰设计工程有限公司,N/A,上海 上海市杨浦区平凉路2103号48幢223室,021-65379820,未提供,NA,Shanghai,Shunqi
上海纵横北嘉广告设计制作有限公司,N/A,上海 上海市虹口区四平路710号7层742-T室,021-56662219,未提供,NA,Shanghai,Shunqi
上海大友动画制作有限公司,N/A,上海 上海市杨浦区控江路1555号A座103室T－2,未提供,13162746789,NA,Shanghai,Shunqi
上海彤威室内装饰设计有限公司,N/A,上海 上海市奉贤区四团镇（邵厂）四平路43号－343,021-56403848,未提供,NA,Shanghai,Shunqi
上海昌融建筑设计装饰有限公司,N/A,上海 上海市虹口区四平路421弄107号N674室,021-66280853,未提供,NA,Shanghai,Shunqi
上海简越建筑设计事务所,N/A,上海 上海市虹口区四平路710号729-A室,021-65219193,未提供,NA,Shanghai,Shunqi
上海派汇建筑装饰设计有限公司,N/A,上海 上海市杨浦区平凉路988号12幢4-12室,未提供,13918939073,NA,Shanghai,Shunqi
上海萤泓图文设计制作有限公司,N/A,上海 上海市杨浦区平凉路1055号D7-24,021-55383701,未提供,NA,Shanghai,Shunqi
上海派斯奈特企业形象设计有限公司,N/A,上海 上海市四平路421弄107号F27室,021-64154989,未提供,NA,Shanghai,Shunqi
上海显业建筑设计工程有限公司,N/A,上海 上海市杨浦区平凉路2103号56幢328室,未提供,15901800407,NA,Shanghai,Shunqi
上海无上建筑设计有限公司,N/A,上海 上海市杨浦区平凉路1398号105-21室,021-51602919,未提供,NA,Shanghai,Shunqi
上海慧恩建筑设计工程有限公司,N/A,上海 上海市虹口区四平路494弄12号6幢,021-52286233,未提供,NA,Shanghai,Shunqi
上海彤宇建筑装饰设计有限公司分公司,N/A,上海 上海市杨浦区四平路1188号1502室,02150866608,未提供,NA,Shanghai,Shunqi
上海家合建筑设计有限公司,N/A,上海 上海市杨浦区平凉路2103号34幢526室,未提供,18521006289,NA,Shanghai,Shunqi
上海怿佳图文设计制作有限公司,N/A,上海 上海市杨浦区平凉路1055号E3-20室,未提供,13361888151,NA,Shanghai,Shunqi
上海俊临装饰装潢工程有限公司,N/A,上海 上海市杨浦区平凉路1499号三层5－301室,未提供,15900677215,NA,Shanghai,Shunqi
上海筑思建筑设计咨询有限公司,N/A,上海 上海市杨浦区平凉路1055号2楼C4-28室,未提供,13817390601,NA,Shanghai,Shunqi
上海韬臻建筑设计工程有限公司,N/A,上海 上海市虹口区四平路421弄107号Q622室,未提供,13818374270,NA,Shanghai,Shunqi
狮达图文设计制作（上海）有限公司,N/A,上海 上海市杨浦区平凉路1055号三楼D13-26室,未提供,13816200760,NA,Shanghai,Shunqi
上海骏真建筑装潢材料有限公司,N/A,上海 上海市虹口区四平路421弄107号P609室,021-56983868,未提供,NA,Shanghai,Shunqi
上海世忠建筑装潢工程有限公司,N/A,上海 上海市杨浦区控江路2061号616-24室,021-65214087,未提供,NA,Shanghai,Shunqi
苏摩那（上海）建筑设计有限公司,N/A,上海 上海市杨浦区平凉路1398号19幢1161室,未提供,17701808608,NA,Shanghai,Shunqi
上海图格建筑设计工程有限公司,N/A,上海 上海市杨浦区平凉路2103号56幢329室,未提供,18317171619,NA,Shanghai,Shunqi
上海新时光照明设计有限公司,N/A,上海 上海市杨浦区平凉路1398号102-2室,021-38721035,未提供,NA,Shanghai,Shunqi
上海誉行广告有限公司,N/A,上海 上海市嘉定工业区汇源路55号8幢3层J970室,(021),13276257837,NA,Shanghai,Shunqi
上海驷安广告有限公司,N/A,上海 上海市嘉定区江桥镇华江公路129弄7号J1105室,(021),18221547415,NA,Shanghai,Shunqi
上海和社广告有限公司,N/A,上海 上海市嘉定区江桥镇华江公路129弄7号J1076室,(021),13671994740,NA,Shanghai,Shunqi
上海棠秋品牌策划有限公司,N/A,上海 上海市嘉定区菊园新区环城路2222号1幢J1310室,(021),15721039557,NA,Shanghai,Shunqi
上海翱铌广告有限公司,N/A,上海 上海市嘉定区菊园新区环城路2222号6幢101-J224室,(021),18217364897,NA,Shanghai,Shunqi
上海茶麟广告有限公司,N/A,上海 上海市嘉定区江桥镇华江公路129弄7号J1029室,(021),15821599428,NA,Shanghai,Shunqi
上海甄品营销策划有限公司,N/A,上海 上海市嘉定工业区叶城路925号B区4幢J2063室,(021),13386227272,NA,Shanghai,Shunqi
上海创钧广告有限公司,N/A,上海 上海市嘉定区新成路500号J822室,(021),18221605400,NA,Shanghai,Shunqi
上海伟网广告有限公司,N/A,上海 上海市嘉定区菊园新区环城路2222号1幢J1275室,(021),13917978290,NA,Shanghai,Shunqi
上海丞璟广告设计有限公司,N/A,上海 上海市嘉定区江桥镇华江公路129弄7号J1011室,(021),13564338492,NA,Shanghai,Shunqi
上海灵广广告有限公司,N/A,上海 嘉定区南翔镇蕰北公路1755弄9号4077室,未提供,18930867333,NA,Shanghai,Shunqi
上海盟磊企业营销策划有限公司,N/A,上海 上海市嘉定区江桥镇华江公路129弄7号J1408室,(021),未提供,NA,Shanghai,Shunqi
上海思色伍录广告有限公司,N/A,上海 嘉定区南翔镇昌翔路168号4幢105室,未提供,13817308244,NA,Shanghai,Shunqi
上海时江广告材料有限公司,N/A,上海 上海市嘉定区江桥镇华江路129弄7号楼1层1294室,021-59114989,未提供,NA,Shanghai,Shunqi
上海骏图广告有限公司,N/A,上海 上海市嘉定区菊园新区环城路2222号6幢101-J426室,(021),未提供,NA,Shanghai,Shunqi
尼狮康（上海）广告有限公司,N/A,上海 上海市嘉定工业区叶城路925号B区4幢J2491室,(021),未提供,NA,Shanghai,Shunqi
上海财港广告器材有限公司,N/A,上海 嘉定区安亭镇墨玉路185号2548,(021),未提供,NA,Shanghai,Shunqi
上海上荣广告有限公司,N/A,上海 上海市嘉定区安亭镇新翔江路2298号307室,(021),未提供,NA,Shanghai,Shunqi
上海利轩广告材料有限公司,N/A,上海 嘉定区南翔镇蕰北公路1755弄20号3153室,未提供,13928058876,NA,Shanghai,Shunqi
上海时异广告有限公司,N/A,上海 上海市嘉定区菊园新区环城路2222号6幢101-J395室,(021),未提供,NA,Shanghai,Shunqi
上海乐普营销策划有限公司,N/A,上海 嘉定区南翔镇古猗园路616号,(021),未提供,NA,Shanghai,Shunqi
上海有前广告器材有限公司,N/A,上海 上海市嘉定区江桥镇华江路129弄7号楼3层3286室,未提供,13564764199,NA,Shanghai,Shunqi
上海铂立营销策划有限公司墨玉路店,N/A,上海 上海市嘉定区安亭镇墨玉南路1018号106室一层-1,(021),未提供,NA,Shanghai,Shunqi
乾狮（上海）广告有限公司,N/A,上海 上海市嘉定工业区叶城路1630号5幢1201室,021-63931330,未提供,NA,Shanghai,Shunqi
上海觅思广告有限公司,N/A,上海 嘉定区南翔镇嘉程路1085号2幢1165室,未提供,18616500152,NA,Shanghai,Shunqi
上海展华广告有限公司,N/A,上海 嘉定区马陆镇沪宜公路2585号,(021),未提供,NA,Shanghai,Shunqi
上海圣马营销策划有限公司,N/A,上海 嘉定区安亭镇墨玉路185号,(021),未提供,NA,Shanghai,Shunqi
上海诺力基广告有限公司,N/A,上海 嘉定区南翔镇和平街252－260号,(021),未提供,NA,Shanghai,Shunqi
上海创鑫广告有限公司,N/A,上海 嘉定区安亭镇方德路310弄46号308室,(021),未提供,NA,Shanghai,Shunqi
上海崇合广告传播有限公司,N/A,上海 嘉定区南翔镇胜辛南路185号2幢3085室,(021),未提供,NA,Shanghai,Shunqi
上海耐基爱德广告有限公司,N/A,上海 嘉定区马陆镇沪宜公路2758号,(021),未提供,NA,Shanghai,Shunqi
上海潜宗广告有限公司,N/A,上海 上海市嘉定区马陆镇嘉戬支路335号,未提供,15021677701,NA,Shanghai,Shunqi
上海项璟广告有限公司,N/A,上海 上海市嘉定区菊园新区环城路2222号6幢101-J203室,(021),未提供,NA,Shanghai,Shunqi
上海得志广告有限公司,N/A,上海 上海市嘉定区徐行镇曹新公路1388弄25号－A151,(021),未提供,NA,Shanghai,Shunqi
上海弘润广告传媒有限公司,N/A,上海 上海市嘉定区南翔镇惠申路420号5幢2055室,021-62447830,未提供,NA,Shanghai,Shunqi
上海时度广告有限公司,N/A,上海 上海市嘉定区嘉定镇博乐路70号36幢2074室,(021),未提供,NA,Shanghai,Shunqi
上海纳腾广告有限公司,N/A,上海 上海市嘉定区江桥镇沙河路337号1-203室-124,未提供,18616892524,NA,Shanghai,Shunqi
上海容平广告有限公司,N/A,上海 嘉定区马陆镇嘉戬公路688号A15－37,(021),未提供,NA,Shanghai,Shunqi
上海雅圣实业有限公司光伏驱动广告用品分公司,N/A,上海 嘉定区马陆镇复华路33号1幢三层B区,(021),未提供,NA,Shanghai,Shunqi
上海博促广告设计有限公司,N/A,上海 上海市嘉定区安亭镇曹安公路4811号1层J34室,(021),未提供,NA,Shanghai,Shunqi
上海利志广告有限公司,N/A,上海 上海市嘉定区菊园新区昌徐路88号2幢1233室,(021),未提供,NA,Shanghai,Shunqi
上海乾禹营销策划有限公司,N/A,上海 上海市嘉定区华亭镇浏翔公路6899号7号楼959室,未提供,13761388968,NA,Shanghai,Shunqi
上海晟杰广告有限公司,N/A,上海 嘉定区江桥镇曹安路3550号－5,(021),未提供,NA,Shanghai,Shunqi
上海献策广告有限公司,N/A,上海 嘉定区南翔镇德园路321弄1－11号,(021),未提供,NA,Shanghai,Shunqi
上海汇灵广告有限公司,N/A,上海 嘉定区南翔镇德园路29号,(021),未提供,NA,Shanghai,Shunqi
上海三川广告有限公司,N/A,上海 嘉定区马陆镇沪宜公路2758号,(021),未提供,NA,Shanghai,Shunqi
银广通广告有限公司,N/A,上海 上海市嘉定工业区叶城路1630号5幢2043室,021-51086733,未提供,NA,Shanghai,Shunqi
上海泽明广告传媒有限公司,N/A,上海 嘉定区马陆镇沪宜公路2758号,(021),未提供,NA,Shanghai,Shunqi
上海是管广告有限公司,N/A,上海 上海市嘉定区南翔镇美裕路600号3幢J1070室,(021),未提供,NA,Shanghai,Shunqi
上海春明广告有限公司,N/A,上海 上海市嘉定工业区叶城路925号B区4幢J2050室,(021),未提供,NA,Shanghai,Shunqi
上海圣逸广告有限公司,N/A,上海 嘉定区江桥镇华江路129弄6号楼3088室,021-59138820,未提供,NA,Shanghai,Shunqi
世誉广告（上海）有限公司,N/A,上海 嘉定区南翔镇嘉美路1988号2幢2021室,(021),未提供,NA,Shanghai,Shunqi
上海比顿广告有限公司,N/A,上海 嘉定区南翔镇蓝天路9号 - ,(021),未提供,NA,Shanghai,Shunqi
上海润茂广告有限公司,N/A,上海 嘉定区马陆镇沪宜公路2585号－4696,(021),未提供,NA,Shanghai,Shunqi
上海臻万广告传媒有限公司,N/A,上海 嘉定区华亭镇浏翔公路6899号1号楼21室,未提供,13670646158,NA,Shanghai,Shunqi
上海绚扬企业营销策划有限公司,N/A,上海 嘉定区马陆镇嘉戬公路688号B6－2,(021),未提供,NA,Shanghai,Shunqi
上海神思广告有限公司,N/A,上海 上海市嘉定区菊园新区树屏路588弄40号4043室,(021),未提供,NA,Shanghai,Shunqi
上海银豆广告有限公司,N/A,上海 嘉定区马陆镇申裕路508号,(021),未提供,NA,Shanghai,Shunqi
上海思倍思广告有限公司,N/A,上海 上海市嘉定区嘉定镇博乐路89号,(021),未提供,NA,Shanghai,Shunqi
上海思倍思广告有限公司,N/A,上海 上海市嘉定区嘉定镇博乐路89号,(021),未提供,NA,Shanghai,Shunqi
上海泽首营销策划服务有限公司,N/A,上海 上海市嘉定区新成路500号J753室,(021),未提供,NA,Shanghai,Shunqi
上海聚思广告有限公司,N/A,上海 嘉定区黄渡镇绿苑路197号F459室,(021),未提供,NA,Shanghai,Shunqi
上海紫禁之巅广告有限公司,N/A,上海 嘉定区安亭镇于田路208号－7－301,(021),未提供,NA,Shanghai,Shunqi
上海岚煊广告有限公司,N/A,上海 上海市嘉定工业区叶城路925号B区4幢J2053室,(021),未提供,NA,Shanghai,Shunqi
上海鸿澜广告有限公司,N/A,上海 嘉定区马陆镇沪宜公路2758号,(021),未提供,NA,Shanghai,Shunqi
上海肖蕾广告有限公司,N/A,上海 嘉定区马陆镇嘉戬公路688号A20－9,(021),未提供,NA,Shanghai,Shunqi
上海梯幕广告设计有限公司,N/A,上海 嘉定区江桥镇华江路171号－49,(021),未提供,NA,Shanghai,Shunqi
上海星益广告传媒有限公司,N/A,上海 上海市嘉定工业区叶城路925号B区4幢J2002室,(021),未提供,NA,Shanghai,Shunqi
上海梦麦广告有限公司,N/A,上海 嘉定区南翔镇民主东街180号,(021),未提供,NA,Shanghai,Shunqi
上海优盟广告有限公司,N/A,上海 嘉定区南翔镇胜辛南路185号1幢205室,(021),未提供,NA,Shanghai,Shunqi
上海奕鲸广告有限公司,N/A,上海 上海市嘉定区菊园新区环城路2222号6幢101-J119室,(021),未提供,NA,Shanghai,Shunqi
上海洪鳌广告有限公司,N/A,上海 嘉定区马陆镇嘉戬公路688号B18－43,(021),未提供,NA,Shanghai,Shunqi
上海墨号广告有限公司,N/A,上海 上海市嘉定区南翔镇美裕路600号3幢J925室,(021),未提供,NA,Shanghai,Shunqi
上海天箭广告有限公司,N/A,上海 嘉定区安亭镇外青松公路1148号1幢221室,(021),未提供,NA,Shanghai,Shunqi
上海征途广告有限公司,N/A,上海 嘉定区马陆镇沪宜公路2758号,(021),未提供,NA,Shanghai,Shunqi
上海瑞勃特广告有限公司,N/A,上海 嘉定区马陆镇沪宜公路2758号,(021),未提供,NA,Shanghai,Shunqi
上海惠忧广告有限公司,N/A,上海 上海市嘉定工业区叶城路925号B区4幢J1631室,(021),未提供,NA,Shanghai,Shunqi
上海霓川广告有限公司,N/A,上海 嘉定区马陆镇嘉戬公路688号C1－59,(021),未提供,NA,Shanghai,Shunqi
上海贝谷广告有限公司,N/A,上海 嘉定南翔镇民主东街176号102室,(021),未提供,NA,Shanghai,Shunqi
上海德擎广告传播有限公司,N/A,上海 嘉定区南翔镇胜辛南路185号2幢3057室,(021),未提供,NA,Shanghai,Shunqi
上海晶越广告服务部,N/A,上海 嘉定区南翔镇静唐路277号2幢162室,(021),未提供,NA,Shanghai,Shunqi
上海麒威广告材料有限公司,N/A,上海 上海市嘉定区江桥镇沙河路337号1_203室J511,(021),未提供,NA,Shanghai,Shunqi
上海智多营销策划有限公司,N/A,上海 嘉定区马陆镇沪宜公路2585号－1928,(021),未提供,NA,Shanghai,Shunqi
上海雁辉广告有限公司,N/A,上海 嘉定区南翔镇翔江公路1222号313室,未提供,13501870423,NA,Shanghai,Shunqi
上海聚锐广告有限公司,N/A,上海 嘉定区安亭镇园区路1218号2幢4283室,(021),未提供,NA,Shanghai,Shunqi
上海曼卡广告传播有限公司,N/A,上海 嘉定区黄渡镇绿苑路197号F623室,(021),未提供,NA,Shanghai,Shunqi
上海灵龛广告有限公司,N/A,上海 嘉定区南翔镇蕰北公路1755弄6号3152室,(021),未提供,NA,Shanghai,Shunqi
上海浦呈广告有限公司,N/A,上海 上海市嘉定区安亭镇园区路1168号4幢2204室,(021),未提供,NA,Shanghai,Shunqi
上海山然广告有限公司,N/A,上海 嘉定区黄渡镇绿苑路197号E379室,(021),未提供,NA,Shanghai,Shunqi
上海沁馨广告有限公司,N/A,上海 上海市嘉定区江桥镇沙河路337号1_203室J426,未提供,13042197968,NA,Shanghai,Shunqi
上海凡术广告有限公司,N/A,上海 嘉定区安亭镇黄渡邓家角15号2幢4028室,未提供,13761019818,NA,Shanghai,Shunqi
昆山久星营销策划有限公司上海分公司,N/A,上海 上海市嘉定区南翔镇德力西路88号2幢A区2250室,未提供,18606260505,NA,Shanghai,Shunqi
上海萨博广告有限公司,N/A,上海 嘉定区嘉定镇博乐路70号10幢1024室,未提供,15900559126,NA,Shanghai,Shunqi
上海荣钊企业营销策划有限公司,N/A,上海 上海市嘉定区封周路655号14幢201室J2252,未提供,13701677081,NA,Shanghai,Shunqi
上海硕欣广告有限公司,N/A,上海 上海市嘉定区天祝路555弄10号112室,未提供,13524356540,NA,Shanghai,Shunqi
上海桓灵广告有限公司,N/A,上海 上海市嘉定区众仁路399号1幢12层B区J1797室,未提供,15921727657,NA,Shanghai,Shunqi
上海神树广告有限公司,N/A,上海 上海市嘉定区安亭镇墨玉南路888号2201 J426室,未提供,13701700014,NA,Shanghai,Shunqi
上海淳箴广告有限公司,N/A,上海 上海市嘉定区封周路655号14幢201室J2191,未提供,18616336198,NA,Shanghai,Shunqi
上海劲睿广告有限公司,N/A,上海 上海市嘉定区华江公路129弄6号J1422室,未提供,18201885485,NA,Shanghai,Shunqi
上海泰清企业营销策划中心,N/A,上海 上海市嘉定区嘉戬公路328号7幢7层J1714室,未提供,15333031860,NA,Shanghai,Shunqi
随睿（上海）建筑设计事务所,N/A,上海 上海市嘉定区江桥镇华江路129弄6号楼3327室,(021),未提供,NA,Shanghai,Shunqi
上海沪佳艺束软装设计有限公司,N/A,上海 上海市嘉定区南翔镇美裕路600号3幢J958室,未提供,18321377358,NA,Shanghai,Shunqi
上海博也装饰设计有限公司,N/A,上海 上海市嘉定工业区叶城路925号B区4幢J2146室,(021),15205613689,NA,Shanghai,Shunqi
上海墨雨装饰设计有限公司,N/A,上海 上海市嘉定区江桥镇华江公路129弄7号J1090室,(021),13127668486,NA,Shanghai,Shunqi
上海唐彭建筑设计事务所,N/A,上海 上海市嘉定区菊园新区环城路2222号1幢J1331室,(021),18917938996,NA,Shanghai,Shunqi
言又几装饰设计工程（上海）有限公司,N/A,上海 上海市嘉定区南翔镇美裕路600号3幢J1109室,(021),13661600808,NA,Shanghai,Shunqi
上海呈风建筑装饰设计有限公司,N/A,上海 上海市嘉定区安亭镇曹安公路4811号1层J119室,(021),13817221707,NA,Shanghai,Shunqi
上海易统金建筑设计有限公司,N/A,上海 上海市嘉定区南翔镇美裕路600号3幢J1104室,(021),18221823096,NA,Shanghai,Shunqi
上海召洹建筑装饰设计有限公司,N/A,上海 上海市嘉定区新成路500号J782室,(021),13636442036,NA,Shanghai,Shunqi
楫家室内建筑设计（上海）有限公司,N/A,上海 上海市嘉定区江桥镇华江公路129弄7号J977室,(021),15601890002,NA,Shanghai,Shunqi
上